     2.10           G: GLONASS NAV DATA                     RINEX VERSION / TYPE
teqc  2015Jun23                         20210427 02:25:43UTCPGM / RUN BY / DATE
Linux 2.4.21-27.ELsmp|Opteron|gcc -static|Linux x86_64|=+   COMMENT
  2021     4     3    9.313225746155D-09                    CORR TO SYSTEM TIME
                                                            END OF HEADER
13 21  4  4  2 15  0.0-5.294848233461D-05-0.000000000000D+00 7.200000000000D+03
    1.116907568359D+04-1.929759025574D+00-0.000000000000D+00 0.000000000000D+00
    1.568656250000D+04-1.241019248962D+00-0.000000000000D+00-2.000000000000D+00
    1.670683447266D+04 2.452387809753D+00-2.793967723846D-09 0.000000000000D+00
22 21  4  4  2 15  0.0-1.060366630554D-04-1.818989403546D-12 7.200000000000D+03
   -2.289645361328D+04 9.088878631592D-01-9.313225746155D-10 0.000000000000D+00
    8.958445800781D+03-2.244558334351D-01-9.313225746155D-10-3.000000000000D+00
    6.579472167969D+03 3.470366477966D+00 0.000000000000D+00 0.000000000000D+00
23 21  4  4  2 15  0.0 3.763409331441D-04 1.818989403546D-12 7.200000000000D+03
   -1.419030712891D+04-1.699816703796D+00 9.313225746155D-10 0.000000000000D+00
    1.514595703125D+04 1.131651878357D+00 9.313225746155D-10 3.000000000000D+00
   -1.482965722656D+04 2.784292221069D+00 9.313225746155D-10 0.000000000000D+00
24 21  4  4  2 15  0.0 3.751181066036D-05 9.094947017729D-13 7.200000000000D+03
   -1.392270507812D+03-2.666365623474D+00 1.862645149231D-09 0.000000000000D+00
    1.248615429688D+04 1.466983795166D+00 1.862645149231D-09 2.000000000000D+00
   -2.218368652344D+04 9.916973114014D-01 9.313225746155D-10 0.000000000000D+00
 3 21  4  4  2 15  0.0 3.360398113728D-05 9.094947017729D-13 8.100000000000D+03
    9.332540527344D+03 3.386974334717D-02-0.000000000000D+00 0.000000000000D+00
    1.275802832031D+04 2.736392974854D+00-0.000000000000D+00 5.000000000000D+00
    2.004994677734D+04-1.765664100647D+00-2.793967723846D-09 0.000000000000D+00
 1 21  4  4  2 45  0.0 7.735844701529D-05 0.000000000000D+00 9.000000000000D+03
   -6.855986816406D+03-2.597599029541D-01 1.862645149231D-09 0.000000000000D+00
    1.606801367188D+04-2.533271789551D+00 9.313225746155D-10 1.000000000000D+00
   -1.858772363281D+04-2.091841697693D+00 9.313225746155D-10 0.000000000000D+00
 2 21  4  4  2 45  0.0 4.734462127090D-04 9.094947017729D-13 9.000000000000D+03
    2.760650878906D+03 1.656122207642D-01 1.862645149231D-09 0.000000000000D+00
    2.532718603516D+04-2.786159515381D-02 9.313225746155D-10-4.000000000000D+00
   -2.393505859375D+01-3.578912734985D+00-1.862645149231D-09 0.000000000000D+00
 3 21  4  4  2 45  0.0 3.360491245985D-05 0.000000000000D+00 9.000000000000D+03
    9.716369140625D+03 3.656835556030D-01 0.000000000000D+00 0.000000000000D+00
    1.721364355469D+04 2.174570083618D+00 0.000000000000D+00 5.000000000000D+00
    1.613942724609D+04-2.551417350769D+00-2.793967723846D-09 0.000000000000D+00
13 21  4  4  2 45  0.0-5.295034497976D-05-0.000000000000D+00 9.000000000000D+03
    7.104687988281D+03-2.558916091919D+00-9.313225746155D-10 0.000000000000D+00
    1.350766308594D+04-1.140113830566D+00-0.000000000000D+00-2.000000000000D+00
    2.041701074219D+04 1.643181800842D+00-2.793967723846D-09 0.000000000000D+00
22 21  4  4  2 45  0.0-1.060413196683D-04-1.818989403546D-12 9.000000000000D+03
   -2.067959130859D+04 1.514678001404D+00-9.313225746155D-10 0.000000000000D+00
    8.020413085938D+03-8.390474319458D-01-9.313225746155D-10-3.000000000000D+00
    1.248883935547D+04 3.052708625793D+00 0.000000000000D+00 0.000000000000D+00
23 21  4  4  2 45  0.0 3.763455897570D-04 1.818989403546D-12 9.000000000000D+03
   -1.653583642578D+04-9.019098281860D-01 9.313225746155D-10 0.000000000000D+00
    1.704346728516D+04 9.309625625610D-01 0.000000000000D+00 3.000000000000D+00
   -9.309338867188D+03 3.309590339661D+00 9.313225746155D-10 0.000000000000D+00
24 21  4  4  2 45  0.0 3.751460462809D-05 9.094947017729D-13 9.000000000000D+03
   -5.738812011719D+03-2.131361007690D+00 1.862645149231D-09 0.000000000000D+00
    1.531175048828D+04 1.633196830750D+00 9.313225746155D-10 2.000000000000D+00
   -1.956296289062D+04 1.901250839233D+00 9.313225746155D-10 0.000000000000D+00
13 21  4  4  3 15  0.0-5.295127630234D-05-0.000000000000D+00 1.080000000000D+04
    2.083286621094D+03-2.978584289551D+00-9.313225746155D-10 0.000000000000D+00
    1.170745068359D+04-8.315677642822D-01-9.313225746155D-10-2.000000000000D+00
    2.254563378906D+04 7.065496444702D-01-1.862645149231D-09 0.000000000000D+00
 1 21  4  4  3 15  0.0 7.735937833786D-05 0.000000000000D+00 1.080000000000D+04
   -7.739406738281D+03-7.313709259033D-01 1.862645149231D-09 0.000000000000D+00
    1.116673876953D+04-2.864364624023D+00 9.313225746155D-10 1.000000000000D+00
   -2.158585009766D+04-1.217743873596D+00 1.862645149231D-09 0.000000000000D+00
 2 21  4  4  3 15  0.0 4.734480753541D-04 9.094947017729D-13 1.080000000000D+04
    2.895865234375D+03-5.422115325928D-02 1.862645149231D-09 0.000000000000D+00
    2.448387695312D+04-8.949441909790D-01 9.313225746155D-10-4.000000000000D+00
   -6.381452148438D+03-3.438894271851D+00-9.313225746155D-10 0.000000000000D+00
 3 21  4  4  3 15  0.0 3.360677510500D-05 0.000000000000D+00 1.080000000000D+04
    1.053016601562D+04 5.006408691406D-01 0.000000000000D+00 0.000000000000D+00
    2.046919921875D+04 1.418262481689D+00 0.000000000000D+00 5.000000000000D+00
    1.098266699219D+04-3.141295433044D+00-2.793967723846D-09 0.000000000000D+00
23 21  4  4  3 15  0.0 3.763502463698D-04 1.818989403546D-12 1.080000000000D+04
   -1.745704882812D+04-1.367950439453D-01 0.000000000000D+00 0.000000000000D+00
    1.833865722656D+04 4.672307968140D-01-0.000000000000D+00 3.000000000000D+00
   -3.069036132812D+03 3.579047203064D+00 0.000000000000D+00 0.000000000000D+00
24 21  4  4  3 15  0.0 3.751646727324D-05 9.094947017729D-13 1.080000000000D+04
   -8.981348632812D+03-1.457277297974D+00 1.862645149231D-09 0.000000000000D+00
    1.820962890625D+04 1.540806770325D+00 9.313225746155D-10 2.000000000000D+00
   -1.542785205078D+04 2.663412094116D+00 9.313225746155D-10 0.000000000000D+00
23 21  4  4  3 45  0.0 3.763549029827D-04 1.818989403546D-12 1.260000000000D+04
   -1.711400292969D+04 4.864025115967D-01-0.000000000000D+00 0.000000000000D+00
    1.859762158203D+04-2.083320617676D-01-0.000000000000D+00 3.000000000000D+00
    3.408684570312D+03 3.571648597717D+00 0.000000000000D+00 0.000000000000D+00
 2 21  4  4  3 45  0.0 4.734499379992D-04 9.094947017729D-13 1.260000000000D+04
    2.440203125000D+03-4.814624786377D-01 2.793967723846D-09 0.000000000000D+00
    2.218925830078D+04-1.623018264771D+00 9.313225746155D-10-4.000000000000D+00
   -1.224305957031D+04-3.031432151794D+00-0.000000000000D+00 0.000000000000D+00
 3 21  4  4  3 45  0.0 3.360770642757D-05 0.000000000000D+00 1.260000000000D+04
    1.137206640625D+04 3.927364349365D-01 9.313225746155D-10 0.000000000000D+00
    2.226447802734D+04 5.708580017090D-01 0.000000000000D+00 5.000000000000D+00
    4.976455566406D+03-3.488977432251D+00-2.793967723846D-09 0.000000000000D+00
24 21  4  4  3 45  0.0 3.751926124096D-05 1.818989403546D-12 1.260000000000D+04
   -1.096843994141D+04-7.555685043335D-01 9.313225746155D-10 0.000000000000D+00
    2.069278955078D+04 1.173543930054D+00 0.000000000000D+00 2.000000000000D+00
   -1.009880468750D+04 3.219240188599D+00 9.313225746155D-10 0.000000000000D+00
17 21  4  4  3 45  0.0 4.134327173233D-04 2.728484105319D-12 1.266000000000D+04
    2.288703613281D+03-1.805809020996D+00 2.793967723846D-09 0.000000000000D+00
    1.301268554688D+04 2.387191772461D+00 9.313225746155D-10 4.000000000000D+00
   -2.181760400391D+04 1.231009483337D+00 9.313225746155D-10 0.000000000000D+00
17 21  4  4  4 15  0.0 4.134383052588D-04 2.728484105319D-12 1.440000000000D+04
   -4.397636718750D+02-1.215391159058D+00 2.793967723846D-09 0.000000000000D+00
    1.725376806641D+04 2.275431632996D+00 0.000000000000D+00 4.000000000000D+00
   -1.878708984375D+04 2.114293098450D+00 9.313225746155D-10 0.000000000000D+00
 2 21  4  4  4 15  0.0 4.734518006444D-04 0.000000000000D+00 1.440000000000D+04
    1.082443847656D+03-1.041381835938D+00 2.793967723846D-09 0.000000000000D+00
    1.877913085938D+04-2.122162818909D+00 0.000000000000D+00-4.000000000000D+00
   -1.715264892578D+04-2.388004302979D+00 0.000000000000D+00 0.000000000000D+00
 3 21  4  4  4 15  0.0 3.360863775015D-05 0.000000000000D+00 1.440000000000D+04
    1.179602001953D+04 3.969478607178D-02 1.862645149231D-09 0.000000000000D+00
    2.253920556641D+04-2.518997192383D-01 0.000000000000D+00 5.000000000000D+00
   -1.415228515625D+03-3.566661834717D+00-1.862645149231D-09 0.000000000000D+00
23 21  4  4  4 15  0.0 3.763586282730D-04 1.818989403546D-12 1.440000000000D+04
   -1.584118652344D+04 8.856611251831D-01-1.862645149231D-09 0.000000000000D+00
    1.751469287109D+04-1.006367683411D+00-9.313225746155D-10 3.000000000000D+00
    9.622624511719D+03 3.287849426270D+00 0.000000000000D+00 0.000000000000D+00
24 21  4  4  4 15  0.0 3.752205520868D-05 1.818989403546D-12 1.440000000000D+04
   -1.175198486328D+04-1.375436782837D-01 0.000000000000D+00 0.000000000000D+00
    2.228650244141D+04 5.612297058105D-01-0.000000000000D+00 2.000000000000D+00
   -3.988501953125D+03 3.525862693787D+00 0.000000000000D+00 0.000000000000D+00
 4 21  4  4  4 15  0.0 8.085835725069D-05 1.818989403546D-12 1.542000000000D+04
    1.558008349609D+04 1.111940383911D+00 0.000000000000D+00 0.000000000000D+00
    1.362255810547D+04 1.716215133667D+00 0.000000000000D+00 6.000000000000D+00
    1.493957910156D+04-2.730620384216D+00-2.793967723846D-09 0.000000000000D+00
 4 21  4  4  4 45  0.0 8.086208254099D-05 1.818989403546D-12 1.620000000000D+04
    1.743631835938D+04 9.061126708984D-01 9.313225746155D-10 0.000000000000D+00
    1.602057226562D+04 9.437255859375D-01 0.000000000000D+00 6.000000000000D+00
    9.511249511719D+03-3.261831283569D+00-2.793967723846D-09 0.000000000000D+00
